ZHUHAI-1 01 (CAS-4A)    
1 42761U 17034D   24163.16566741  .00018439  00000+0  66416-3 0  9997
2 42761  43.0207 258.9402 0011850 315.5679  44.4222 15.28195501386494
CARTOSAT-2E             
1 42767U 17036C   24163.14585678  .00009421  00000+0  44815-3 0  9993
2 42767  97.4374 222.6101 0004322  13.0242 347.1104 15.19385620386398
FORMOSAT-5              
1 42920U 17049A   24162.91823925  .00000547  00000+0  14938-3 0  9995
2 42920  98.2910 240.7330 0010529 182.4216 177.6930 14.50972793359915
SENTINEL-5P             
1 42969U 17064A   24162.91266917  .00000202  00000+0  11665-3 0  9999
2 42969  98.7214 102.2116 0001281  80.5677 279.5644 14.19532060345102
SKYSAT-C11              
1 42987U 17068A   24162.87510407  .00023831  00000+0  60825-3 0  9999
2 42987  97.3584 289.1674 0002044 343.9316  16.1865 15.39493215369674
SKYSAT-C10              
1 42988U 17068B   24162.93278191  .00016802  00000+0  55416-3 0  9998
2 42988  97.3665 288.9500 0002975 252.6548 107.4368 15.31503899369636
SKYSAT-C9               
1 42989U 17068C   24163.05932446  .00017530  00000+0  55632-3 0  9992
2 42989  97.3592 287.5517 0015956 351.7440   8.3537 15.32610894369849
SKYSAT-C8               
1 42990U 17068D   24162.90121818  .00016560  00000+0  57290-3 0  9994
2 42990  97.3692 288.4925 0005739 148.8353 211.3229 15.29945603369581
SKYSAT-C7               
1 42991U 17068E   24162.93473028  .00016126  00000+0  55545-3 0  9990
2 42991  97.3692 288.9274 0008247  94.0144 266.2039 15.30077471369614
SKYSAT-C6               
1 42992U 17068F   24162.89344237  .00017643  00000+0  58504-3 0  9998
2 42992  97.3720 289.8930 0003284 162.3146 197.8210 15.31318540369642
CARTOSAT-2F             
1 43111U 18004A   24163.17905705  .00009705  00000+0  46298-3 0  9995
2 43111  97.4308 222.7648 0000634  77.2434 282.8871 15.19282512355582
GAOFEN-1 02             
1 43259U 18031A   24163.21170172  .00001937  00000+0  28448-3 0  9991
2 43259  97.8207 230.8771 0003309 175.5915 184.5325 14.76592116334093
GAOFEN-1 03             
1 43260U 18031B   24163.18995154  .00001913  00000+0  28107-3 0  9990
2 43260  97.8201 230.7771 0003112 267.2773  92.8081 14.76595600334081
GAOFEN-1 04             
1 43262U 18031D   24163.16539785  .00001923  00000+0  28258-3 0  9992
2 43262  97.8210 230.8590 0002884 212.4937 147.6096 14.76585798334073
SENTINEL-3B             
1 43437U 18039A   24162.89595361  .00000321  00000+0  15071-3 0  9995
2 43437  98.6283 229.8995 0000847 107.9675 252.1598 14.26737596319136
GAOFEN-5 01             
1 43461U 18043A   24162.89910274  .00001052  00000+0  23336-3 0  9996
2 43461  98.3556 113.3032 0001730 158.7787 201.3484 14.59152281324259
GAOFEN-6                
1 43484U 18048A   24163.20582694  .00001732  00000+0  25562-3 0  9991
2 43484  97.8636 237.7415 0011950  38.9841 321.2229 14.76495149324787
GAOFEN-11 01            
1 43585U 18063A   24163.21133057  .00012932  00000+0  43930-3 0  9999
2 43585  97.2313 229.2585 0009629 126.7162 233.4966 15.30563345326847
ICESAT-2                
1 43613U 18070A   24162.90609289  .00019547  00000+0  72455-3 0  9992
2 43613  92.0018  92.9552 0009031  93.2417 266.9865 15.27527599320010
HYSIS                   
1 43719U 18096A   24163.16797334  .00002681  00000+0  37219-3 0  9995
2 43719  97.8655 227.2120 0001241  44.1062 316.0248 14.78725126298654
KAZSTSAT                
1 43783U 18099AB  24162.69510131  .00003126  00000+0  28017-3 0  9995
2 43783  97.5271 213.9730 0007652  18.5236 341.6263 14.96466159301019
SAUDISAT 5A             
1 43831U 18102A   24163.17149743  .00006758  00000+0  35542-3 0  9990
2 43831  97.4076 228.9486 0012230 192.2798 167.8139 15.15915539303688
SAUDISAT 5B             
1 43833U 18102C   24163.21216414  .00007384  00000+0  38095-3 0  9999
2 43833  97.4122 230.7990 0012897 197.1627 162.9172 15.16558714303779
GAOFEN-10R              
1 44622U 19066A   24163.15801532  .00003108  00000+0  38488-3 0  9996
2 44622  97.9648 105.1247 0003587 113.8239 246.3351 14.83446751253325
CARTOSAT-3              
1 44804U 19081A   24163.18275672  .00008016  00000+0  38288-3 0  9999
2 44804  97.5322 220.9733 0012888 195.8939 164.1893 15.19232973251672
GAOFEN-12 01            
1 44819U 19082A   24163.17387528  .00001057  00000+0  14299-3 0  9993
2 44819  97.8231 177.4338 0001135 140.3726 219.7569 14.81038240245184
CSG-1                   
1 44873U 19092A   24163.18652789  .00001205  00000+0  15794-3 0  9995
2 44873  97.8868 346.4210 0001540  92.4574 267.6815 14.82145643242455
NUSAT-6 (HYPATIA)       
1 46272U 20061A   24162.90705884  .00099613  00000+0  11024-2 0  9993
2 46272  97.2305 237.1448 0001107 244.6758 115.4386 15.62680605210508
NEMO-HD                 
1 46277U 20061F   24163.16530231  .00009158  00000+0  35690-3 0  9990
2 46277  97.2967 226.0108 0002712 129.8814 230.2664 15.26174254209025
SENTINEL-6              
1 46984U 20086A   24163.21979839 -.00000044  00000+0  72374-4 0  9996
2 46984  66.0405 223.6641 0007897 270.3047  89.7064 12.80928660166180
GAOFEN-12 02            
1 48079U 21026A   24163.23096469  .00001123  00000+0  15159-3 0  9994
2 48079  97.9496 154.9618 0001540  72.9164 287.2217 14.81040673172864
PLEIADES NEO 3          
1 48268U 21034A   24163.21678692  .00004023  00000+0  51753-3 0  9997
2 48268  97.8927 237.5450 0001183 125.2807 234.8517 14.81672519168678
NUSAT-19 (ROSALIND)     
1 48905U 21059AC  24163.15216457  .00065735  00000+0  10419-2 0  9992
2 48905  97.5912 315.0814 0003066  33.6925 326.4522 15.53177490164902
PLEIADES NEO 4          
1 49070U 21073E   24163.11547022  .00002671  00000+0  34578-3 0  9996
2 49070  97.8930 237.4418 0001180 120.0974 240.0356 14.81681613152377
LANDSAT 9               
1 49260U 21088A   24163.19647977  .00000880  00000+0  20516-3 0  9998
2 49260  98.1875 232.9172 0001024  99.0768 261.0547 14.57128464143817
CSG-2                   
1 51444U 22008A   24163.15278117  .00001130  00000+0  14857-3 0  9990
2 51444  97.8865 346.3834 0001539  88.0216 272.1173 14.82145982127565
INS-2TD                 
1 51658U 22013C   24163.06278082  .00060653  00000+0  12892-2 0  9995
2 51658  97.5186 186.1233 0008219 156.1971 203.9659 15.44758920129053
GAOFEN-12 03            
1 52912U 22069A   24163.20683265  .00003059  00000+0  40045-3 0  9998
2 52912  97.9116  54.3218 0005003 145.9315 214.2219 14.81112861105722
SWOT                    
1 54754U 22173A   24163.15249245  .00000175  00000+0  12055-3 0  9996
2 54754  77.6103 308.8763 0000094 123.0719 237.0442 14.00170121 76149
GAOFEN-12 04            
1 57654U 23123A   24163.17239485  .00002659  00000+0  34955-3 0  9993
2 57654  97.9110  80.7057 0004180 196.9710 163.1363 14.81051338 43733
PARS 1                  
1 59065U 24039Q   24163.20308506  .00009364  00000+0  36785-3 0  9996
2 59065  97.3936 125.2576 0012943 223.5087 136.5131 15.25836827 15663
RESURS-P 4              
1 59371U 24061A   24163.18511243  .00006342  00000+0  20296-3 0  9995
2 59371  97.1859 116.4264 0002593 106.6952 253.4575 15.32742056 11006
SARSAT 7 (NOAA 15)      
1 25338U 98030A   24163.20491955  .00000439  00000+0  19982-3 0  9999
2 25338  98.5683 190.4568 0009918 349.3002  10.7966 14.26600224356586
GPS BIIR-08             
1 27663U 03005A   24162.93965441 -.00000019  00000+0  00000+0 0  9997
2 27663  55.1071 244.2449 0136518  47.3639 119.7236  2.00575231156545
GPS BIIR-11             
1 28190U 04009A   24162.48076337 -.00000070  00000+0  00000+0 0  9992
2 28190  55.4605 305.3069 0097749 147.8015 207.6828  2.00559502148166
GPS BIIR-13             
1 28474U 04045A   24162.95629434 -.00000102  00000+0  00000+0 0  9997
2 28474  55.4278 354.4583 0161818 292.3363  91.8634  2.00561193143650
SARSAT 10 (NOAA 18)     
1 28654U 05018A   24163.19015654  .00000412  00000+0  24342-3 0  9990
2 28654  98.8744 240.2048 0015296  81.9154 278.3753 14.13228377982415
GPS BIIR-14M            
1 28874U 05038A   24162.50504779 -.00000068  00000+0  00000+0 0  9990
2 28874  55.5067 302.7671 0136042 284.1220 113.0200  2.00555923137065
METEOSAT-9 (MSG-2)      
1 28912U 05049B   24162.90642785  .00000123  00000+0  00000+0 0  9990
2 28912   7.6734  60.9258 0001260 358.1379 212.7096  1.00275410 67668
GOES 13                 
1 29155U 06018A   24162.81716056  .00000015  00000+0  00000+0 0  9990
2 29155   2.6107  85.3616 0082361 255.1095 113.6873  0.99104410 35977
GPS BIIR-16M            
1 29601U 06052A   24162.51899325 -.00000015  00000+0  00000+0 0  9993
2 29601  55.1374 243.2388 0085208  83.0313 278.0013  2.00567438128632
GPS BIIR-17M            
1 32260U 07047A   24162.32203198  .00000000  00000+0  00000+0 0  9992
2 32260  53.6040 110.5341 0154818  75.1475 286.5254  2.00564489122032
GPS BIIR-18M            
1 32384U 07062A   24162.59103932 -.00000069  00000+0  00000+0 0  9996
2 32384  55.6460 303.6252 0028417 150.9008 171.4391  2.00574556120737
SARSAT 12 (NOAA 19)     
1 33591U 09005A   24163.14067001  .00000367  00000+0  22103-3 0  9996
2 33591  99.0472 218.8759 0012923 312.1624  47.8449 14.13024211790775
GOES 14                 
1 35491U 09033A   24162.90750874 -.00000065  00000+0  00000+0 0  9992
2 35491   0.3264 104.7027 0003588 346.6912  26.4726  1.00272911 54734
GOES 15                 
1 36411U 10008A   24162.94128750  .00000039  00000+0  00000+0 0  9995
2 36411   0.2857  89.5754 0001822 108.0970 102.3486  1.00268378 52258
GSAT0101 (GALILEO-PFM)  
1 37846U 11060A   24162.09768846 -.00000098  00000+0  00000+0 0  9995
2 37846  57.1288   1.7240 0003622  47.1597 312.8993  1.70476010 78557
GSAT0102 (GALILEO-FM2)  
1 37847U 11060B   24162.61561876 -.00000098  00000+0  00000+0 0  9998
2 37847  57.1297   1.7102 0003390  12.6088 351.0132  1.70475483 78574
LUCH 5A                 
1 37951U 11074B   24163.04910591 -.00000050  00000+0  00000+0 0  9997
2 37951   6.8706  85.0706 0003911   4.2986 355.0375  1.00271850 45813
